{"type": "FeatureCollection", "features": [ {"type": "Feature", "properties": {"norad_id": 66826, "name": "STARLINK-35898", "group": "last-30-days", "lat": -47.84404933460464, "lon": 31.488027562153654, "alt_km": 375.47589538567536, "timestamp": "2025-12-16T15:45:49.733307+00:00", "meta": {"OBJECT_NAME": "STARLINK-35898", "OBJECT_ID": "2025-280F", "EPOCH": "2025-12-15T22:00:01.999584", "MEAN_MOTION": 15.6888765, "ECCENTRICITY": 0.00037543, "INCLINATION": 69.9983, "RA_OF_ASC_NODE": 189.8344, "ARG_OF_PERICENTER": 276.3326, "MEAN_ANOMALY": 100.8045, "EPHEMERIS_TYPE": 0, "CLASSIFICATION_TYPE": "U", "NORAD_CAT_ID": 66826, "ELEMENT_SET_NO": 999, "REV_AT_EPOCH": 340, "BSTAR": -0.018907212, "MEAN_MOTION_DOT": -0.01931754, "MEAN_MOTION_DDOT": 0}, "tle": {"line1": "1 66826U 25280F   25349.91668981 -.01931754  00000+0 -18907-1 0  9993", "line2": "2 66826  69.9983 189.8344 0003754 276.3326 100.8045 15.68887650  3408"}}, "geometry": {"type": "Point", "coordinates": [31.488027562153654, -47.84404933460464]}}, {"type": "Feature", "properties": {"norad_id": 66827, "name": "STARLINK-35959", "group": "last-30-days", "lat": -49.464760260425244, "lon": 32.972183889284345, "alt_km": 375.61933987438624, "timestamp": "2025-12-16T15:45:49.733317+00:00", "meta": {"OBJECT_NAME": "STARLINK-35959", "OBJECT_ID": "2025-280G", "EPOCH": "2025-12-15T22:00:01.999584", "MEAN_MOTION": 15.68899936, "ECCENTRICITY": 0.00036752, "INCLINATION": 69.9984, "RA_OF_ASC_NODE": 189.8318, "ARG_OF_PERICENTER": 277.4771, "MEAN_ANOMALY": 101.5727, "EPHEMERIS_TYPE": 0, "CLASSIFICATION_TYPE": "U", "NORAD_CAT_ID": 66827, "ELEMENT_SET_NO": 999, "REV_AT_EPOCH": 340, "BSTAR": -0.01912777, "MEAN_MOTION_DOT": -0.01952506, "MEAN_MOTION_DDOT": 0}, "tle": {"line1": "1 66827U 25280G   25349.91668981 -.01952506  00000+0 -19128-1 0  9998", "line2": "2 66827  69.9984 189.8318 0003675 277.4771 101.5727 15.68899936  3404"}}, "geometry": {"type": "Point", "coordinates": [32.972183889284345, -49.464760260425244]}}, {"type": "Feature", "properties": {"norad_id": 66828, "name": "STARLINK-35982", "group": "last-30-days", "lat": -52.67797837342854, "lon": 36.29586104206924, "alt_km": 375.52411472150925, "timestamp": "2025-12-16T15:45:49.733347+00:00", "meta": {"OBJECT_NAME": "STARLINK-35982", "OBJECT_ID": "2025-280H", "EPOCH": "2025-12-15T22:00:01.999584", "MEAN_MOTION": 15.68896099, "ECCENTRICITY": 0.00036795, "INCLINATION": 69.9987, "RA_OF_ASC_NODE": 189.8271, "ARG_OF_PERICENTER": 275.2198, "MEAN_ANOMALY": 107.6645, "EPHEMERIS_TYPE": 0, "CLASSIFICATION_TYPE": "U", "NORAD_CAT_ID": 66828, "ELEMENT_SET_NO": 999, "REV_AT_EPOCH": 340, "BSTAR": -0.019070727, "MEAN_MOTION_DOT": -0.01947079, "MEAN_MOTION_DDOT": 0}, "tle": {"line1": "1 66828U 25280H   25349.91668981 -.01947079  00000+0 -19071-1 0  9995", "line2": "2 66828  69.9987 189.8271 0003679 275.2198 107.6645 15.68896099  3402"}}, "geometry": {"type": "Point", "coordinates": [36.29586104206924, -52.67797837342854]}}, {"type": "Feature", "properties": {"norad_id": 66829, "name": "STARLINK-36084", "group": "last-30-days", "lat": -51.08291139861309, "lon": 34.576128851652655, "alt_km": 375.54855857829716, "timestamp": "2025-12-16T15:45:49.733358+00:00", "meta": {"OBJECT_NAME": "STARLINK-36084", "OBJECT_ID": "2025-280J", "EPOCH": "2025-12-15T22:00:01.999584", "MEAN_MOTION": 15.68895189, "ECCENTRICITY": 0.00037615, "INCLINATION": 69.9984, "RA_OF_ASC_NODE": 189.8294, "ARG_OF_PERICENTER": 277.2792, "MEAN_ANOMALY": 103.6908, "EPHEMERIS_TYPE": 0, "CLASSIFICATION_TYPE": "U", "NORAD_CAT_ID": 66829, "ELEMENT_SET_NO": 999, "REV_AT_EPOCH": 325, "BSTAR": -0.019075437, "MEAN_MOTION_DOT": -0.01947522, "MEAN_MOTION_DDOT": 0}, "tle": {"line1": "1 66829U 25280J   25349.91668981 -.01947522  00000+0 -19075-1 0  9993", "line2": "2 66829  69.9984 189.8294 0003761 277.2792 103.6908 15.68895189  3259"}}, "geometry": {"type": "Point", "coordinates": [34.576128851652655, -51.08291139861309]}}, {"type": "Feature", "properties": {"norad_id": 66830, "name": "STARLINK-35881", "group": "last-30-days", "lat": -54.24633080479956, "lon": 38.145278290436735, "alt_km": 375.5661485411638, "timestamp": "2025-12-16T15:45:49.733369+00:00", "meta": {"OBJECT_NAME": "STARLINK-35881", "OBJECT_ID": "2025-280K", "EPOCH": "2025-12-15T22:00:01.999584", "MEAN_MOTION": 15.68895842, "ECCENTRICITY": 0.0003584, "INCLINATION": 69.9985, "RA_OF_ASC_NODE": 189.8241, "ARG_OF_PERICENTER": 275.2606, "MEAN_ANOMALY": 109.5392, "EPHEMERIS_TYPE": 0, "CLASSIFICATION_TYPE": "U", "NORAD_CAT_ID": 66830, "ELEMENT_SET_NO": 999, "REV_AT_EPOCH": 340, "BSTAR": -0.019050949, "MEAN_MOTION_DOT": -0.01945179, "MEAN_MOTION_DDOT": 0}, "tle": {"line1": "1 66830U 25280K   25349.91668981 -.01945179  00000+0 -19051-1 0  9995", "line2": "2 66830  69.9985 189.8241 0003584 275.2606 109.5392 15.68895842  3404"}}, "geometry": {"type": "Point", "coordinates": [38.145278290436735, -54.24633080479956]}}, {"type": "Feature", "properties": {"norad_id": 66831, "name": "STARLINK-35788", "group": "last-30-days", "lat": -55.776336205840884, "lon": 40.13037974062951, "alt_km": 375.51796837258007, "timestamp": "2025-12-16T15:45:49.733379+00:00", "meta": {"OBJECT_NAME": "STARLINK-35788", "OBJECT_ID": "2025-280L", "EPOCH": "2025-12-15T22:00:01.999584", "MEAN_MOTION": 15.68893567, "ECCENTRICITY": 0.00037383, "INCLINATION": 69.9986, "RA_OF_ASC_NODE": 189.8229, "ARG_OF_PERICENTER": 276.932, "MEAN_ANOMALY": 109.7877, "EPHEMERIS_TYPE": 0, "CLASSIFICATION_TYPE": "U", "NORAD_CAT_ID": 66831, "ELEMENT_SET_NO": 999, "REV_AT_EPOCH": 340, "BSTAR": -0.019061014, "MEAN_MOTION_DOT": -0.01946079, "MEAN_MOTION_DDOT": 0}, "tle": {"line1": "1 66831U 25280L   25349.91668981 -.01946079  00000+0 -19061-1 0  9997", "line2": "2 66831  69.9986 189.8229 0003738 276.9320 109.7877 15.68893567  3406"}}, "geometry": {"type": "Point", "coordinates": [40.13037974062951, -55.776336205840884]}}, {"type": "Feature", "properties": {"norad_id": 66832, "name": "STARLINK-35768", "group": "last-30-days", "lat": -57.28283543606209, "lon": 42.291410886178, "alt_km": 375.5154523932524, "timestamp": "2025-12-16T15:45:49.733391+00:00", "meta": {"OBJECT_NAME": "STARLINK-35768", "OBJECT_ID": "2025-280M", "EPOCH": "2025-12-15T22:00:01.999584", "MEAN_MOTION": 15.68892544, "ECCENTRICITY": 0.00036228, "INCLINATION": 69.9983, "RA_OF_ASC_NODE": 189.8196, "ARG_OF_PERICENTER": 275.1388, "MEAN_ANOMALY": 113.4971, "EPHEMERIS_TYPE": 0, "CLASSIFICATION_TYPE": "U", "NORAD_CAT_ID": 66832, "ELEMENT_SET_NO": 999, "REV_AT_EPOCH": 340, "BSTAR": -0.01901781, "MEAN_MOTION_DOT": -0.01941985, "MEAN_MOTION_DDOT": 0}, "tle": {"line1": "1 66832U 25280M   25349.91668981 -.01941985  00000+0 -19018-1 0  9991", "line2": "2 66832  69.9983 189.8196 0003622 275.1388 113.4971 15.68892544  3405"}}, "geometry": {"type": "Point", "coordinates": [42.291410886178, -57.28283543606209]}}, {"type": "Feature", "properties": {"norad_id": 66833, "name": "STARLINK-35858", "group": "last-30-days", "lat": -58.749113598306494, "lon": 44.63566655019223, "alt_km": 375.4616124989152, "timestamp": "2025-12-16T15:45:49.733401+00:00", "meta": {"OBJECT_NAME": "STARLINK-35858", "OBJECT_ID": "2025-280N", "EPOCH": "2025-12-15T22:00:01.999584", "MEAN_MOTION": 15.68890633, "ECCENTRICITY": 0.00035898, "INCLINATION": 69.9981, "RA_OF_ASC_NODE": 189.8174, "ARG_OF_PERICENTER": 273.1639, "MEAN_ANOMALY": 117.3877, "EPHEMERIS_TYPE": 0, "CLASSIFICATION_TYPE": "U", "NORAD_CAT_ID": 66833, "ELEMENT_SET_NO": 999, "REV_AT_EPOCH": 340, "BSTAR": -0.018958626, "MEAN_MOTION_DOT": -0.01936461, "MEAN_MOTION_DDOT": 0}, "tle": {"line1": "1 66833U 25280N   25349.91668981 -.01936461  00000+0 -18959-1 0  9998", "line2": "2 66833  69.9981 189.8174 0003589 273.1639 117.3877 15.68890633  3404"}}, "geometry": {"type": "Point", "coordinates": [44.63566655019223, -58.749113598306494]}}, {"type": "Feature", "properties": {"norad_id": 66834, "name": "STARLINK-35840", "group": "last-30-days", "lat": -60.15409556106594, "lon": 47.153279137608024, "alt_km": 375.5161198240012, "timestamp": "2025-12-16T15:45:49.733411+00:00", "meta": {"OBJECT_NAME": "STARLINK-35840", "OBJECT_ID": "2025-280P", "EPOCH": "2025-12-15T22:00:01.999584", "MEAN_MOTION": 15.68896105, "ECCENTRICITY": 0.00035808, "INCLINATION": 69.9983, "RA_OF_ASC_NODE": 189.8148, "ARG_OF_PERICENTER": 274.1467, "MEAN_ANOMALY": 118.3199, "EPHEMERIS_TYPE": 0, "CLASSIFICATION_TYPE": "U", "NORAD_CAT_ID": 66834, "ELEMENT_SET_NO": 999, "REV_AT_EPOCH": 340, "BSTAR": -0.019075023, "MEAN_MOTION_DOT": -0.01947371, "MEAN_MOTION_DDOT": 0}, "tle": {"line1": "1 66834U 25280P   25349.91668981 -.01947371  00000+0 -19075-1 0  9991", "line2": "2 66834  69.9983 189.8148 0003580 274.1467 118.3199 15.68896105  3407"}}, "geometry": {"type": "Point", "coordinates": [47.153279137608024, -60.15409556106594]}}, {"type": "Feature", "properties": {"norad_id": 66835, "name": "STARLINK-35890", "group": "last-30-days", "lat": -61.515495541178694, "lon": 49.91177095915025, "alt_km": 375.4832007172172, "timestamp": "2025-12-16T15:45:49.733421+00:00", "meta": {"OBJECT_NAME": "STARLINK-35890", "OBJECT_ID": "2025-280Q", "EPOCH": "2025-12-15T22:00:01.999584", "MEAN_MOTION": 15.68896536, "ECCENTRICITY": 0.00036448, "INCLINATION": 69.9979, "RA_OF_ASC_NODE": 189.8125, "ARG_OF_PERICENTER": 275.1185, "MEAN_ANOMALY": 119.2659, "EPHEMERIS_TYPE": 0, "CLASSIFICATION_TYPE": "U", "NORAD_CAT_ID": 66835, "ELEMENT_SET_NO": 999, "REV_AT_EPOCH": 340, "BSTAR": -0.019081498, "MEAN_MOTION_DOT": -0.01948051, "MEAN_MOTION_DDOT": 0}, "tle": {"line1": "1 66835U 25280Q   25349.91668981 -.01948051  00000+0 -19081-1 0  9995", "line2": "2 66835  69.9979 189.8125 0003644 275.1185 119.2659 15.68896536  3406"}}, "geometry": {"type": "Point", "coordinates": [49.91177095915025, -61.515495541178694]}}]}